[
    {
        "Altitude(m)": 705595.4820098547,
        "Argument of Periapsis(deg)": 0.006834072711976239,
        "Eccentricity": 0.0,
        "Inclination(deg)": 45.0,
        "Latitude(deg)": 37.224208902328684,
        "Longitude(deg)": -79.53230732784891,
        "Mean Anomaly(deg)": -238.53457001151148,
        "RAAN(deg)": 249.99354883512513,
        "Satellite Name": "Constellation 1 1107",
        "Satellite Number": 1107,
        "Semi-Major Axis(m)": 7083131.272910544,
        "Time(s)": 114
    },
    {
        "Altitude(m)": 705589.7646666503,
        "Argument of Periapsis(deg)": 0.006894020718221645,
        "Eccentricity": 0.0,
        "Inclination(deg)": 45.0,
        "Latitude(deg)": 37.195976596383616,
        "Longitude(deg)": -79.46899845455158,
        "Mean Anomaly(deg)": -238.4738688712616,
        "RAAN(deg)": 249.9934922459595,
        "Satellite Name": "Constellation 1 1107",
        "Satellite Number": 1107,
        "Semi-Major Axis(m)": 7083131.272910544,
        "Time(s)": 115
    },
    {
        "Altitude(m)": 705584.0430422878,
        "Argument of Periapsis(deg)": 0.006953968724467052,
        "Eccentricity": 0.0,
        "Inclination(deg)": 45.0,
        "Latitude(deg)": 37.16770583054406,
        "Longitude(deg)": -79.4057397692516,
        "Mean Anomaly(deg)": -238.41316773101167,
        "RAAN(deg)": 249.99343565679393,
        "Satellite Name": "Constellation 1 1107",
        "Satellite Number": 1107,
        "Semi-Major Axis(m)": 7083131.272910544,
        "Time(s)": 116
    },
    {
        "Altitude(m)": 705578.3171724122,
        "Argument of Periapsis(deg)": 0.007013916730712457,
        "Eccentricity": 0.0,
        "Inclination(deg)": 45.0,
        "Latitude(deg)": 37.139396671966324,
        "Longitude(deg)": -79.34253125120699,
        "Mean Anomaly(deg)": -238.35246659076185,
        "RAAN(deg)": 249.99337906762838,
        "Satellite Name": "Constellation 1 1107",
        "Satellite Number": 1107,
        "Semi-Major Axis(m)": 7083131.272910544,
        "Time(s)": 117
    },
    {
        "Altitude(m)": 705572.5870927103,
        "Argument of Periapsis(deg)": 0.007073864736957864,
        "Eccentricity": 0.0,
        "Inclination(deg)": 45.0,
        "Latitude(deg)": 37.11104918776144,
        "Longitude(deg)": -79.27937287937634,
        "Mean Anomaly(deg)": -238.29176545051183,
        "RAAN(deg)": 249.99332247846283,
        "Satellite Name": "Constellation 1 1107",
        "Satellite Number": 1107,
        "Semi-Major Axis(m)": 7083131.272910544,
        "Time(s)": 118
    },
    {
        "Altitude(m)": 705566.8528388998,
        "Argument of Periapsis(deg)": 0.0071338127432032696,
        "Eccentricity": 0.0,
        "Inclination(deg)": 45.0,
        "Latitude(deg)": 37.08266344499502,
        "Longitude(deg)": -79.21626480051769,
        "Mean Anomaly(deg)": -238.231064310262,
        "RAAN(deg)": 249.99326588929728,
        "Satellite Name": "Constellation 1 1107",
        "Satellite Number": 1107,
        "Semi-Major Axis(m)": 7083131.272910544,
        "Time(s)": 119
    },
    {
        "Altitude(m)": 705561.1144467368,
        "Argument of Periapsis(deg)": 0.007193760749448674,
        "Eccentricity": 0.0,
        "Inclination(deg)": 45.0,
        "Latitude(deg)": 37.05423951068696,
        "Longitude(deg)": -79.15320665680217,
        "Mean Anomaly(deg)": -238.17036317001214,
        "RAAN(deg)": 249.99320930013164,
        "Satellite Name": "Constellation 1 1107",
        "Satellite Number": 1107,
        "Semi-Major Axis(m)": 7083131.272910544,
        "Time(s)": 120
    },
    {
        "Altitude(m)": 705555.3719520131,
        "Argument of Periapsis(deg)": 0.007253708755694079,
        "Eccentricity": 0.0,
        "Inclination(deg)": 45.0,
        "Latitude(deg)": 37.02577745181098,
        "Longitude(deg)": -79.09019859439638,
        "Mean Anomaly(deg)": -238.1096620297622,
        "RAAN(deg)": 249.9931527109661,
        "Satellite Name": "Constellation 1 1107",
        "Satellite Number": 1107,
        "Semi-Major Axis(m)": 7083131.272910544,
        "Time(s)": 121
    },
    {
        "Altitude(m)": 705549.625390558,
        "Argument of Periapsis(deg)": 0.0073136567619394854,
        "Eccentricity": 0.0,
        "Inclination(deg)": 45.0,
        "Latitude(deg)": 36.997277335294264,
        "Longitude(deg)": -79.02724059107665,
        "Mean Anomaly(deg)": -238.0489608895123,
        "RAAN(deg)": 249.99309612180053,
        "Satellite Name": "Constellation 1 1107",
        "Satellite Number": 1107,
        "Semi-Major Axis(m)": 7083131.272910544,
        "Time(s)": 122
    },
    {
        "Altitude(m)": 705543.874798232,
        "Argument of Periapsis(deg)": 0.0073736047681848904,
        "Eccentricity": 0.0,
        "Inclination(deg)": 45.0,
        "Latitude(deg)": 36.96873922801726,
        "Longitude(deg)": -78.96433262432748,
        "Mean Anomaly(deg)": -237.98825974926243,
        "RAAN(deg)": 249.99303953263498,
        "Satellite Name": "Constellation 1 1107",
        "Satellite Number": 1107,
        "Semi-Major Axis(m)": 7083131.272910544,
        "Time(s)": 123
    },
    {
        "Altitude(m)": 705538.1202109378,
        "Argument of Periapsis(deg)": 0.007433552774430298,
        "Eccentricity": 0.0,
        "Inclination(deg)": 45.0,
        "Latitude(deg)": 36.94016319681333,
        "Longitude(deg)": -78.90147467134241,
        "Mean Anomaly(deg)": -237.92755860901252,
        "RAAN(deg)": 249.99298294346943,
        "Satellite Name": "Constellation 1 1107",
        "Satellite Number": 1107,
        "Semi-Major Axis(m)": 7083131.272910544,
        "Time(s)": 124
    },
    {
        "Altitude(m)": 705532.3616646075,
        "Argument of Periapsis(deg)": 0.007493500780675703,
        "Eccentricity": 0.0,
        "Inclination(deg)": 45.0,
        "Latitude(deg)": 36.91154930846837,
        "Longitude(deg)": -78.83866670902617,
        "Mean Anomaly(deg)": -237.8668574687626,
        "RAAN(deg)": 249.99292635430385,
        "Satellite Name": "Constellation 1 1107",
        "Satellite Number": 1107,
        "Semi-Major Axis(m)": 7083131.272910544,
        "Time(s)": 125
    },
    {
        "Altitude(m)": 705526.599195217,
        "Argument of Periapsis(deg)": 0.007553448786921108,
        "Eccentricity": 0.0,
        "Inclination(deg)": 45.0,
        "Latitude(deg)": 36.88289762972041,
        "Longitude(deg)": -78.77590888209203,
        "Mean Anomaly(deg)": -237.80615632851269,
        "RAAN(deg)": 249.99286976513824,
        "Satellite Name": "Constellation 1 1107",
        "Satellite Number": 1107,
        "Semi-Major Axis(m)": 7083131.272910544,
        "Time(s)": 126
    },
    {
        "Altitude(m)": 705520.8328387624,
        "Argument of Periapsis(deg)": 0.007613396793166514,
        "Eccentricity": 0.0,
        "Inclination(deg)": 45.0,
        "Latitude(deg)": 36.8542082272595,
        "Longitude(deg)": -78.71320083067654,
        "Mean Anomaly(deg)": -237.7454551882628,
        "RAAN(deg)": 249.99281317597269,
        "Satellite Name": "Constellation 1 1107",
        "Satellite Number": 1107,
        "Semi-Major Axis(m)": 7083131.272910544,
        "Time(s)": 127
    },
    {
        "Altitude(m)": 705515.0626312881,
        "Argument of Periapsis(deg)": 0.007673344799411918,
        "Eccentricity": 0.0,
        "Inclination(deg)": 45.0,
        "Latitude(deg)": 36.82548116772728,
        "Longitude(deg)": -78.65054269892171,
        "Mean Anomaly(deg)": -237.68475404801288,
        "RAAN(deg)": 249.99275658680713,
        "Satellite Name": "Constellation 1 1107",
        "Satellite Number": 1107,
        "Semi-Major Axis(m)": 7083131.272910544,
        "Time(s)": 128
    },
    {
        "Altitude(m)": 705509.288608872,
        "Argument of Periapsis(deg)": 0.007733292805657325,
        "Eccentricity": 0.0,
        "Inclination(deg)": 45.0,
        "Latitude(deg)": 36.79671651771665,
        "Longitude(deg)": -78.58793446258929,
        "Mean Anomaly(deg)": -237.62405290776297,
        "RAAN(deg)": 249.99269999764155,
        "Satellite Name": "Constellation 1 1107",
        "Satellite Number": 1107,
        "Semi-Major Axis(m)": 7083131.272910544,
        "Time(s)": 129
    },
    {
        "Altitude(m)": 705503.5108076207,
        "Argument of Periapsis(deg)": 0.00779324081190273,
        "Eccentricity": 0.0,
        "Inclination(deg)": 45.0,
        "Latitude(deg)": 36.76791434377143,
        "Longitude(deg)": -78.5253760971584,
        "Mean Anomaly(deg)": -237.56335176751313,
        "RAAN(deg)": 249.992643408476,
        "Satellite Name": "Constellation 1 1107",
        "Satellite Number": 1107,
        "Semi-Major Axis(m)": 7083131.272910544,
        "Time(s)": 130
    },
    {
        "Altitude(m)": 705497.7292636742,
        "Argument of Periapsis(deg)": 0.007853188818148135,
        "Eccentricity": 0.0,
        "Inclination(deg)": 45.0,
        "Latitude(deg)": 36.73907471238613,
        "Longitude(deg)": -78.46286757782784,
        "Mean Anomaly(deg)": -237.50265062726328,
        "RAAN(deg)": 249.9925868193104,
        "Satellite Name": "Constellation 1 1107",
        "Satellite Number": 1107,
        "Semi-Major Axis(m)": 7083131.272910544,
        "Time(s)": 131
    },
    {
        "Altitude(m)": 705491.9440132179,
        "Argument of Periapsis(deg)": 0.007913136824393542,
        "Eccentricity": 0.0,
        "Inclination(deg)": 45.0,
        "Latitude(deg)": 36.710197690005586,
        "Longitude(deg)": -78.40040887951642,
        "Mean Anomaly(deg)": -237.4419494870133,
        "RAAN(deg)": 249.99253023014484,
        "Satellite Name": "Constellation 1 1107",
        "Satellite Number": 1107,
        "Semi-Major Axis(m)": 7083131.272910544,
        "Time(s)": 132
    }
]